DIRECTV 11              
1 32729U 08013A   26065.56197567 -.00000130  00000+0  00000+0 0  9993
2 32729   0.0177 334.4791 0000280   9.1117 283.8006  1.00272331 44565
GALAXY 18 (G-18)        
1 32951U 08024A   26065.55720898  .00000000  00000+0  00000+0 0  9995
2 32951   0.0228 154.5117 0003259 218.5909 228.7869  1.00271782 44829
INTELSAT 25 (IS-25)     
1 33153U 08034A   26065.43267615 -.00000228  00000+0  00000+0 0  9994
2 33153   2.4425  81.5933 0003713 237.9392 328.8879  1.00272517 64664
GALAXY 19 (G-19)        
1 33376U 08045A   26065.56232234 -.00000143  00000+0  00000+0 0  9992
2 33376   0.0433 260.4694 0002786  88.2077 281.0280  1.00271491 63870
FM-5                    
1 35493U 09034A   26065.56448902 -.00000204  00000+0  00000+0 0  9992
2 35493   0.0388 271.8279 0000942 304.3800  65.1156  1.00271518 45619
INTELSAT 14 (IS-14)     
1 36097U 09064A   26065.78661667 -.00000277  00000+0  00000+0 0  9995
2 36097   0.0272  91.3809 0002475 253.5274  57.7792  1.00272602 59577
INTELSAT 15 (IS-15)     
1 36106U 09067A   26065.81235677  .00000000  00000+0  00000+0 0  9994
2 36106   0.0181 163.0292 0002374 198.1544 180.9506  1.00270306 40203
DIRECTV 12              
1 36131U 09075A   26065.56119566 -.00000108  00000+0  00000+0 0  9991
2 36131   0.0028  95.7619 0000364 280.3135 247.5154  1.00272318 45526
INTELSAT 16 (IS-16)     
1 36397U 10006A   26065.56648236 -.00000249  00000+0  00000+0 0  9998
2 36397   0.0187 110.1523 0002018 244.2092 297.6468  1.00272377 58625
XM-5                    
1 37185U 10053A   26065.55876898 -.00000027  00000+0  00000+0 0  9996
2 37185   0.0668 273.7447 0003569 252.7855  83.6924  1.00270940 56452
INTELSAT 17 (IS-17)     
1 37238U 10065B   26065.59464914 -.00000005  00000+0  00000+0 0  9990
2 37238   0.0162 180.1730 0002485 170.8958  93.3048  1.00272934 52216
INTELSAT 28 (IS-28)     
1 37392U 11016A   26065.44489146 -.00000229  00000+0  00000+0 0  9994
2 37392   1.5405  83.9567 0004621 262.0273 306.6316  1.00272008 52253
INTELSAT 18 (IS-18)     
1 37834U 11056A   26065.75983655  .00000050  00000+0  00000+0 0  9998
2 37834   0.0363 264.2390 0001915  81.2133 272.5553  1.00274571 52787
INTELSAT 22 (IS-22)     
1 38098U 12011A   26065.59586249 -.00000062  00000+0  00000+0 0  9997
2 38098   0.0064 156.1408 0001661 209.4389  85.3453  1.00271339  6150
INTELSAT 19 (IS-19)     
1 38356U 12030A   26065.77753093 -.00000060  00000+0  00000+0 0  9996
2 38356   0.0201 140.4423 0003018 208.0823 261.8648  1.00272951 49424
INTELSAT 20 (IS-20)     
1 38740U 12043A   26065.59516914 -.00000028  00000+0  00000+0 0  9990
2 38740   0.0199 139.4260 0002558  28.4259 279.2167  1.00271229 49717
INTELSAT 21 (IS-21)     
1 38749U 12045A   26065.78401667 -.00000288  00000+0  00000+0 0  9998
2 38749   0.0237 245.0280 0001850 110.0216  33.6918  1.00272535 49492
